{
  "type": "FeatureCollection",
  "features": [
    {
      "type": "Feature",
      "properties": {
        "norad_id": 28051,
        "name": "IRS-P6 (RESOURCESAT-1)",
        "group": "resource",
        "lat": -58.5591964517642,
        "lon": 54.987577247367255,
        "alt_km": 823.2907090882873,
        "timestamp": "2025-12-27T14:26:30.172982+00:00",
        "meta_object_name": "IRS-P6 (RESOURCESAT-1)",
        "meta_object_id": "2003-046A",
        "meta_epoch": "2025-12-27T06:59:18.553344",
        "meta_mean_motion": 14.36080702,
        "meta_eccentricity": 0.00650261,
        "meta_inclination": 98.2159,
        "meta_ra_of_asc_node": 41.0223,
        "meta_arg_of_pericenter": 137.2801,
        "meta_mean_anomaly": 358.4506,
        "meta_ephemeris_type": 0,
        "meta_classification_type": "U",
        "meta_norad_cat_id": 28051,
        "meta_element_set_no": 999,
        "meta_rev_at_epoch": 15585,
        "meta_bstar": 4.3661346e-05,
        "meta_mean_motion_dot": 9e-07,
        "meta_mean_motion_ddot": 0,
        "tle_line1": "1 28051U 03046A   25361.29118696  .00000090  00000+0  43661-4 0  9990",
        "tle_line2": "2 28051  98.2159  41.0223 0065026 137.2801 358.4506 14.36080702155851"
      },
      "geometry": {
        "type": "Point",
        "coordinates": [
          54.987577247367255,
          -58.5591964517642
        ]
      }
    },
    {
      "type": "Feature",
      "properties": {
        "norad_id": 28220,
        "name": "SHIYAN-1 (SY-1)",
        "group": "resource",
        "lat": 61.411744021753734,
        "lon": 49.2731782809873,
        "alt_km": 477.53727083073863,
        "timestamp": "2025-12-27T14:26:30.172993+00:00",
        "meta_object_name": "SHIYAN-1 (SY-1)",
        "meta_object_id": "2004-012A",
        "meta_epoch": "2025-12-27T03:10:17.240736",
        "meta_mean_motion": 15.28524905,
        "meta_eccentricity": 0.00051661,
        "meta_inclination": 97.8914,
        "meta_ra_of_asc_node": 63.5214,
        "meta_arg_of_pericenter": 264.7953,
        "meta_mean_anomaly": 95.2696,
        "meta_ephemeris_type": 0,
        "meta_classification_type": "U",
        "meta_norad_cat_id": 28220,
        "meta_element_set_no": 999,
        "meta_rev_at_epoch": 18476,
        "meta_bstar": 0.00061686102,
        "meta_mean_motion_dot": 0.00017068,
        "meta_mean_motion_ddot": 0,
        "tle_line1": "1 28220U 04012A   25361.13214399  .00017068  00000+0  61686-3 0  9991",
        "tle_line2": "2 28220  97.8914  63.5214 0005166 264.7953  95.2696 15.28524905184763"
      },
      "geometry": {
        "type": "Point",
        "coordinates": [
          49.2731782809873,
          61.411744021753734
        ]
      }
    },
    {
      "type": "Feature",
      "properties": {
        "norad_id": 28376,
        "name": "AURA",
        "group": "resource",
        "lat": 79.17005819036065,
        "lon": -178.19356687258016,
        "alt_km": 681.6221014227676,
        "timestamp": "2025-12-27T14:26:30.173003+00:00",
        "meta_object_name": "AURA",
        "meta_object_id": "2004-026A",
        "meta_epoch": "2025-12-27T05:46:52.407840",
        "meta_mean_motion": 14.60980321,
        "meta_eccentricity": 0.0001455,
        "meta_inclination": 98.3205,
        "meta_ra_of_asc_node": 311.5366,
        "meta_arg_of_pericenter": 90.1118,
        "meta_mean_anomaly": 270.0249,
        "meta_ephemeris_type": 0,
        "meta_classification_type": "U",
        "meta_norad_cat_id": 28376,
        "meta_element_set_no": 999,
        "meta_rev_at_epoch": 14110,
        "meta_bstar": 0.0002713825,
        "meta_mean_motion_dot": 1.283e-05,
        "meta_mean_motion_ddot": 0,
        "tle_line1": "1 28376U 04026A   25361.24088435  .00001283  00000+0  27138-3 0  9996",
        "tle_line2": "2 28376  98.3205 311.5366 0001455  90.1118 270.0249 14.60980321141100"
      },
      "geometry": {
        "type": "Point",
        "coordinates": [
          -178.19356687258016,
          79.17005819036065
        ]
      }
    },
    {
      "type": "Feature",
      "properties": {
        "norad_id": 28649,
        "name": "IRS-P5 (CARTOSAT-1)",
        "group": "resource",
        "lat": 79.8690061180333,
        "lon": -20.553402572399534,
        "alt_km": 588.8175147252732,
        "timestamp": "2025-12-27T14:26:30.173014+00:00",
        "meta_object_name": "IRS-P5 (CARTOSAT-1)",
        "meta_object_id": "2005-017A",
        "meta_epoch": "2025-12-27T01:10:47.096544",
        "meta_mean_motion": 14.90453087,
        "meta_eccentricity": 4.68e-05,
        "meta_inclination": 97.5482,
        "meta_ra_of_asc_node": 26.8273,
        "meta_arg_of_pericenter": 77.8552,
        "meta_mean_anomaly": 282.2719,
        "meta_ephemeris_type": 0,
        "meta_classification_type": "U",
        "meta_norad_cat_id": 28649,
        "meta_element_set_no": 999,
        "meta_rev_at_epoch": 11817,
        "meta_bstar": 0.00019183665,
        "meta_mean_motion_dot": 1.818e-05,
        "meta_mean_motion_ddot": 0,
        "tle_line1": "1 28649U 05017A   25361.04915621  .00001818  00000+0  19184-3 0  9990",
        "tle_line2": "2 28649  97.5482  26.8273 0000468  77.8552 282.2719 14.90453087118176"
      },
      "geometry": {
        "type": "Point",
        "coordinates": [
          -20.553402572399534,
          79.8690061180333
        ]
      }
    },
    {
      "type": "Feature",
      "properties": {
        "norad_id": 28893,
        "name": "SINAH 1",
        "group": "resource",
        "lat": 73.84631718939593,
        "lon": -19.695332690200292,
        "alt_km": 662.35792119701,
        "timestamp": "2025-12-27T14:26:30.173025+00:00",
        "meta_object_name": "SINAH 1",
        "meta_object_id": "2005-043D",
        "meta_epoch": "2025-12-27T07:24:30.335616",
        "meta_mean_motion": 14.63978019,
        "meta_eccentricity": 0.00157294,
        "meta_inclination": 98.261,
        "meta_ra_of_asc_node": 129.9057,
        "meta_arg_of_pericenter": 94.5733,
        "meta_mean_anomaly": 265.7266,
        "meta_ephemeris_type": 0,
        "meta_classification_type": "U",
        "meta_norad_cat_id": 28893,
        "meta_element_set_no": 999,
        "meta_rev_at_epoch": 7537,
        "meta_bstar": 0.00011526509,
        "meta_mean_motion_dot": 5.56e-06,
        "meta_mean_motion_ddot": 0,
        "tle_line1": "1 28893U 05043D   25361.30868444  .00000556  00000+0  11527-3 0  9990",
        "tle_line2": "2 28893  98.2610 129.9057 0015729  94.5733 265.7266 14.63978019 75370"
      },
      "geometry": {
        "type": "Point",
        "coordinates": [
          -19.695332690200292,
          73.84631718939593
        ]
      }
    },
    {
      "type": "Feature",
      "properties": {
        "norad_id": 29079,
        "name": "EROS B",
        "group": "resource",
        "lat": 51.36982771240755,
        "lon": 109.64750521275457,
        "alt_km": 345.12802047274454,
        "timestamp": "2025-12-27T14:26:30.173035+00:00",
        "meta_object_name": "EROS B",
        "meta_object_id": "2006-014A",
        "meta_epoch": "2025-12-27T08:06:57.203712",
        "meta_mean_motion": 15.73281478,
        "meta_eccentricity": 0.00050448,
        "meta_inclination": 97.3443,
        "meta_ra_of_asc_node": 118.6576,
        "meta_arg_of_pericenter": 313.422,
        "meta_mean_anomaly": 46.6623,
        "meta_ephemeris_type": 0,
        "meta_classification_type": "U",
        "meta_norad_cat_id": 29079,
        "meta_element_set_no": 999,
        "meta_rev_at_epoch": 9309,
        "meta_bstar": 0.0015121188,
        "meta_mean_motion_dot": 0.00213092,
        "meta_mean_motion_ddot": 0,
        "tle_line1": "1 29079U 06014A   25361.33816208  .00213092  00000+0  15121-2 0  9994",
        "tle_line2": "2 29079  97.3443 118.6576 0005044 313.4220  46.6623 15.73281478 93095"
      },
      "geometry": {
        "type": "Point",
        "coordinates": [
          109.64750521275457,
          51.36982771240755
        ]
      }
    },
    {
      "type": "Feature",
      "properties": {
        "norad_id": 29228,
        "name": "RESURS-DK 1",
        "group": "resource",
        "lat": 61.07699190158162,
        "lon": -157.9894285214441,
        "alt_km": 526.1774655810841,
        "timestamp": "2025-12-27T14:26:30.173046+00:00",
        "meta_object_name": "RESURS-DK 1",
        "meta_object_id": "2006-021A",
        "meta_epoch": "2025-12-27T07:36:04.257216",
        "meta_mean_motion": 15.12243621,
        "meta_eccentricity": 0.00069834,
        "meta_inclination": 69.9337,
        "meta_ra_of_asc_node": 64.164,
        "meta_arg_of_pericenter": 246.1035,
        "meta_mean_anomaly": 113.94,
        "meta_ephemeris_type": 0,
        "meta_classification_type": "U",
        "meta_norad_cat_id": 29228,
        "meta_element_set_no": 999,
        "meta_rev_at_epoch": 7658,
        "meta_bstar": 0.00019269204,
        "meta_mean_motion_dot": 3.233e-05,
        "meta_mean_motion_ddot": 0,
        "tle_line1": "1 29228U 06021A   25361.31671594  .00003233  00000+0  19269-3 0  9995",
        "tle_line2": "2 29228  69.9337  64.1640 0006983 246.1035 113.9400 15.12243621 76581"
      },
      "geometry": {
        "type": "Point",
        "coordinates": [
          -157.9894285214441,
          61.07699190158162
        ]
      }
    }
  ]
}